start=new Date('2022-07-07T00:00:00.000Z').valueOf();
sats=[{"ECCENTRICITY":"0.00017840","MEAN_ANOMALY":"292.3760","REF_FRAME":"TEME","RA_OF_ASC_NODE":"102.1589","MEAN_MOTION":"15.06381242","GP_ID":"207536183","PERIAPSIS":"546.036","TLE_LINE1":"1 45773U 20038AV  22187.45450038  .00000410  00000-0  46423-4 0  9996","INCLINATION":"53.0559","SITE":"AFETR","EPHEMERIS_TYPE":"0","OBJECT_NAME":"STARLINK-1482","LAUNCH_DATE":"2020-06-13","PERIOD":"95.593","CLASSIFICATION_TYPE":"U","NORAD_CAT_ID":"45773","FILE":"3508782","REV_AT_EPOCH":"11445","MEAN_ELEMENT_THEORY":"SGP4","APOAPSIS":"548.507","ELEMENT_SET_NO":"999","COUNTRY_CODE":"US","OBJECT_TYPE":"PAYLOAD","EPOCH":"2022-07-06T10:54:28.832832","MEAN_MOTION_DDOT":"0.0000000000000","DECAY_DATE":null,"BSTAR":"0.00004642300000","MEAN_MOTION_DOT":"0.00000410","TIME_SYSTEM":"UTC","ARG_OF_PERICENTER":"67.7418","OBJECT_ID":"2020-038AV","TLE_LINE2":"2 45773  53.0559 102.1589 0001784  67.7418 292.3760 15.06381242114450","RCS_SIZE":"LARGE","SEMIMAJOR_AXIS":"6925.406","CENTER_NAME":"EARTH"},{"MEAN_MOTION_DDOT":"0.0000000000000","EPOCH":"2022-07-06T11:47:32.533728","OBJECT_TYPE":"PAYLOAD","DECAY_DATE":null,"MEAN_MOTION_DOT":"0.00000788","BSTAR":"0.00007180500000","SEMIMAJOR_AXIS":"6925.388","RCS_SIZE":"LARGE","CENTER_NAME":"EARTH","TIME_SYSTEM":"UTC","ARG_OF_PERICENTER":"73.1953","TLE_LINE2":"2 45774  53.0565 101.9937 0001809  73.1953 286.9235 15.06387105114455","OBJECT_ID":"2020-038AW","REF_FRAME":"TEME","RA_OF_ASC_NODE":"101.9937","MEAN_MOTION":"15.06387105","MEAN_ANOMALY":"286.9235","ECCENTRICITY":"0.00018090","TLE_LINE1":"1 45774U 20038AW  22187.49134877  .00000788  00000-0  71805-4 0  9991","GP_ID":"207537434","PERIAPSIS":"546.000","EPHEMERIS_TYPE":"0","LAUNCH_DATE":"2020-06-13","OBJECT_NAME":"STARLINK-1485","INCLINATION":"53.0565","SITE":"AFETR","COUNTRY_CODE":"US","FILE":"3508782","PERIOD":"95.593","NORAD_CAT_ID":"45774","CLASSIFICATION_TYPE":"U","APOAPSIS":"548.506","ELEMENT_SET_NO":"999","MEAN_ELEMENT_THEORY":"SGP4","REV_AT_EPOCH":"11445"},{"TIME_SYSTEM":"UTC","ARG_OF_PERICENTER":"82.2583","OBJECT_ID":"2020-038AX","TLE_LINE2":"2 45775  53.0555 101.9727 0001536  82.2583 277.8581 15.06399837114468","SEMIMAJOR_AXIS":"6925.349","RCS_SIZE":"LARGE","CENTER_NAME":"EARTH","BSTAR":"0.00014984000000","MEAN_MOTION_DOT":"0.00001951","DECAY_DATE":null,"EPOCH":"2022-07-06T11:52:51.152736","OBJECT_TYPE":"PAYLOAD","MEAN_MOTION_DDOT":"0.0000000000000","CLASSIFICATION_TYPE":"U","PERIOD":"95.592","NORAD_CAT_ID":"45775","FILE":"3508782","REV_AT_EPOCH":"11446","MEAN_ELEMENT_THEORY":"SGP4","APOAPSIS":"548.278","ELEMENT_SET_NO":"999","COUNTRY_CODE":"US","INCLINATION":"53.0555","SITE":"AFETR","EPHEMERIS_TYPE":"0","OBJECT_NAME":"STARLINK-1488","LAUNCH_DATE":"2020-06-13","GP_ID":"207537685","PERIAPSIS":"546.150","TLE_LINE1":"1 45775U 20038AX  22187.49503649  .00001951  00000-0  14984-3 0  9996","MEAN_ANOMALY":"277.8581","ECCENTRICITY":"0.00015360","REF_FRAME":"TEME","RA_OF_ASC_NODE":"101.9727","MEAN_MOTION":"15.06399837"},{"EPOCH":"2022-07-06T12:03:28.400256","OBJECT_TYPE":"PAYLOAD","MEAN_MOTION_DDOT":"0.0000000000000","DECAY_DATE":null,"BSTAR":"0.00010548000000","MEAN_MOTION_DOT":"0.00001289","TIME_SYSTEM":"UTC","ARG_OF_PERICENTER":"68.2603","TLE_LINE2":"2 45776  53.0566 101.9343 0001745  68.2603 291.8571 15.06390599114465","OBJECT_ID":"2020-038AY","SEMIMAJOR_AXIS":"6925.377","RCS_SIZE":"LARGE","CENTER_NAME":"EARTH","MEAN_ANOMALY":"291.8571","ECCENTRICITY":"0.00017450","REF_FRAME":"TEME","MEAN_MOTION":"15.06390599","RA_OF_ASC_NODE":"101.9343","GP_ID":"207536433","PERIAPSIS":"546.034","TLE_LINE1":"1 45776U 20038AY  22187.50241204  .00001289  00000-0  10548-3 0  9991","INCLINATION":"53.0566","SITE":"AFETR","EPHEMERIS_TYPE":"0","LAUNCH_DATE":"2020-06-13","OBJECT_NAME":"STARLINK-1489","FILE":"3508782","PERIOD":"95.593","NORAD_CAT_ID":"45776","CLASSIFICATION_TYPE":"U","APOAPSIS":"548.451","ELEMENT_SET_NO":"999","REV_AT_EPOCH":"11446","MEAN_ELEMENT_THEORY":"SGP4","COUNTRY_CODE":"US"},{"REF_FRAME":"TEME","RA_OF_ASC_NODE":"101.9643","MEAN_MOTION":"15.06387389","MEAN_ANOMALY":"290.7502","ECCENTRICITY":"0.00019130","TLE_LINE1":"1 45777U 20038AZ  22187.49872983  .00002435  00000-0  18235-3 0  9999","GP_ID":"207536683","PERIAPSIS":"545.927","EPHEMERIS_TYPE":"0","OBJECT_NAME":"STARLINK-1490","LAUNCH_DATE":"2020-06-13","INCLINATION":"53.0560","SITE":"AFETR","COUNTRY_CODE":"US","PERIOD":"95.593","CLASSIFICATION_TYPE":"U","NORAD_CAT_ID":"45777","FILE":"3508782","REV_AT_EPOCH":"11446","MEAN_ELEMENT_THEORY":"SGP4","APOAPSIS":"548.577","ELEMENT_SET_NO":"999","MEAN_MOTION_DDOT":"0.0000000000000","EPOCH":"2022-07-06T11:58:10.257312","OBJECT_TYPE":"PAYLOAD","DECAY_DATE":null,"MEAN_MOTION_DOT":"0.00002435","BSTAR":"0.00018235000000","SEMIMAJOR_AXIS":"6925.387","RCS_SIZE":"LARGE","CENTER_NAME":"EARTH","TIME_SYSTEM":"UTC","ARG_OF_PERICENTER":"69.3692","OBJECT_ID":"2020-038AZ","TLE_LINE2":"2 45777  53.0560 101.9643 0001913  69.3692 290.7502 15.06387389114465"},{"EPOCH":"2022-07-06T11:31:37.578720","OBJECT_TYPE":"PAYLOAD","MEAN_MOTION_DDOT":"0.0000000000000","DECAY_DATE":null,"MEAN_MOTION_DOT":"0.00004286","BSTAR":"0.00030643000000","ARG_OF_PERICENTER":"84.9443","TIME_SYSTEM":"UTC","TLE_LINE2":"2 45778  53.0532 102.0255 0001255  84.9443 275.1689 15.06403038114443","OBJECT_ID":"2020-038BA","SEMIMAJOR_AXIS":"6925.339","RCS_SIZE":"LARGE","CENTER_NAME":"EARTH","MEAN_ANOMALY":"275.1689","ECCENTRICITY":"0.00012550","REF_FRAME":"TEME","RA_OF_ASC_NODE":"102.0255","MEAN_MOTION":"15.06403038","GP_ID":"207536935","PERIAPSIS":"546.335","TLE_LINE1":"1 45778U 20038BA  22187.48029605  .00004286  00000-0  30643-3 0  9997","INCLINATION":"53.0532","SITE":"AFETR","EPHEMERIS_TYPE":"0","LAUNCH_DATE":"2020-06-13","OBJECT_NAME":"STARLINK-1491","FILE":"3508782","PERIOD":"95.592","CLASSIFICATION_TYPE":"U","NORAD_CAT_ID":"45778","APOAPSIS":"548.073","ELEMENT_SET_NO":"999","REV_AT_EPOCH":"11444","MEAN_ELEMENT_THEORY":"SGP4","COUNTRY_CODE":"US"},{"MEAN_MOTION_DOT":"0.00002302","BSTAR":"0.00017344000000","SEMIMAJOR_AXIS":"6925.367","RCS_SIZE":"LARGE","CENTER_NAME":"EARTH","TIME_SYSTEM":"UTC","ARG_OF_PERICENTER":"61.6627","TLE_LINE2":"2 45779  53.0561 102.0446 0001980  61.6627 298.4562 15.06393878114447","OBJECT_ID":"2020-038BB","MEAN_MOTION_DDOT":"0.0000000000000","EPOCH":"2022-07-06T11:26:19.293216","OBJECT_TYPE":"PAYLOAD","DECAY_DATE":null,"EPHEMERIS_TYPE":"0","LAUNCH_DATE":"2020-06-13","OBJECT_NAME":"STARLINK-1492","INCLINATION":"53.0561","SITE":"AFETR","COUNTRY_CODE":"US","FILE":"3508782","NORAD_CAT_ID":"45779","PERIOD":"95.593","CLASSIFICATION_TYPE":"U","APOAPSIS":"548.604","ELEMENT_SET_NO":"999","REV_AT_EPOCH":"11444","MEAN_ELEMENT_THEORY":"SGP4","REF_FRAME":"TEME","MEAN_MOTION":"15.06393878","RA_OF_ASC_NODE":"102.0446","ECCENTRICITY":"0.00019800","MEAN_ANOMALY":"298.4562","TLE_LINE1":"1 45779U 20038BB  22187.47661219  .00002302  00000-0  17344-3 0  9990","GP_ID":"207537186","PERIAPSIS":"545.861"},{"CENTER_NAME":"EARTH","RCS_SIZE":"LARGE","SEMIMAJOR_AXIS":"6925.388","TLE_LINE2":"2 45780  53.0531 102.0009 0001748  68.4503 291.6672 15.06387210114441","OBJECT_ID":"2020-038BC","TIME_SYSTEM":"UTC","ARG_OF_PERICENTER":"68.4503","BSTAR":"0.00019184000000","MEAN_MOTION_DOT":"0.00002576","DECAY_DATE":null,"MEAN_MOTION_DDOT":"0.0000000000000","EPOCH":"2022-07-06T11:42:14.878080","OBJECT_TYPE":"PAYLOAD","COUNTRY_CODE":"US","APOAPSIS":"548.463","ELEMENT_SET_NO":"999","MEAN_ELEMENT_THEORY":"SGP4","REV_AT_EPOCH":"11444","FILE":"3508782","NORAD_CAT_ID":"45780","PERIOD":"95.593","CLASSIFICATION_TYPE":"U","LAUNCH_DATE":"2020-06-13","OBJECT_NAME":"STARLINK-1496","EPHEMERIS_TYPE":"0","SITE":"AFETR","INCLINATION":"53.0531","TLE_LINE1":"1 45780U 20038BC  22187.48767220  .00002576  00000-0  19184-3 0  9999","PERIAPSIS":"546.042","GP_ID":"207535935","MEAN_MOTION":"15.06387210","RA_OF_ASC_NODE":"102.0009","REF_FRAME":"TEME","MEAN_ANOMALY":"291.6672","ECCENTRICITY":"0.00017480"},{"MEAN_MOTION_DDOT":"0.0000000000000","OBJECT_TYPE":"PAYLOAD","EPOCH":"2022-07-06T05:57:14.234688","DECAY_DATE":null,"BSTAR":"0.00012270000000","MEAN_MOTION_DOT":"0.00001546","RCS_SIZE":"LARGE","SEMIMAJOR_AXIS":"6925.392","CENTER_NAME":"EARTH","ARG_OF_PERICENTER":"67.1423","TIME_SYSTEM":"UTC","OBJECT_ID":"2020-038BD","TLE_LINE2":"2 45781  53.0541 103.0794 0001764  67.1423 292.9752 15.06385777114416","REF_FRAME":"TEME","RA_OF_ASC_NODE":"103.0794","MEAN_MOTION":"15.06385777","MEAN_ANOMALY":"292.9752","ECCENTRICITY":"0.00017640","TLE_LINE1":"1 45781U 20038BD  22187.24808142  .00001546  00000-0  12270-3 0  9998","GP_ID":"207536184","PERIAPSIS":"546.036","EPHEMERIS_TYPE":"0","OBJECT_NAME":"STARLINK-1497","LAUNCH_DATE":"2020-06-13","INCLINATION":"53.0541","SITE":"AFETR","COUNTRY_CODE":"US","CLASSIFICATION_TYPE":"U","PERIOD":"95.593","NORAD_CAT_ID":"45781","FILE":"3508782","MEAN_ELEMENT_THEORY":"SGP4","REV_AT_EPOCH":"11441","ELEMENT_SET_NO":"999","APOAPSIS":"548.479"},{"TLE_LINE1":"1 45782U 20038BE  22187.24070061 -.00000485  00000-0 -13660-4 0  9998","PERIAPSIS":"545.910","GP_ID":"207537435","RA_OF_ASC_NODE":"103.1220","MEAN_MOTION":"15.06393585","REF_FRAME":"TEME","ECCENTRICITY":"0.00019100","MEAN_ANOMALY":"293.8652","COUNTRY_CODE":"US","ELEMENT_SET_NO":"999","APOAPSIS":"548.556","REV_AT_EPOCH":"11442","MEAN_ELEMENT_THEORY":"SGP4","FILE":"3508782","PERIOD":"95.593","NORAD_CAT_ID":"45782","CLASSIFICATION_TYPE":"U","LAUNCH_DATE":"2020-06-13","OBJECT_NAME":"STARLINK-1498","EPHEMERIS_TYPE":"0","SITE":"AFETR","INCLINATION":"53.0560","DECAY_DATE":null,"MEAN_MOTION_DDOT":"0.0000000000000","EPOCH":"2022-07-06T05:46:36.532704","OBJECT_TYPE":"PAYLOAD","CENTER_NAME":"EARTH","SEMIMAJOR_AXIS":"6925.368","RCS_SIZE":"LARGE","TLE_LINE2":"2 45782  53.0560 103.1220 0001910  66.2538 293.8652 15.06393585114429","OBJECT_ID":"2020-038BE","TIME_SYSTEM":"UTC","ARG_OF_PERICENTER":"66.2538","BSTAR":"-0.00001366000000","MEAN_MOTION_DOT":"-0.00000485"}];
